satname,norad_id,inclination_deg,eccentricity,mean_motion_rev_per_day,perigee_km,apogee_km,l1,l2
STARLINK-1573,46061,53.1593,0.0001128,15.31696634,469.977474657986,471.5225835717538,1 46061U 20055AL  26196.42607142  .00000842  00000+0  38892-4 0  9996,2 46061  53.1593 239.5444 0001128  75.7257 284.3870 15.31696634328640
STARLINK-1577,46063,53.1572,0.0001022,15.31686147,470.08133115973214,471.481250058333,1 46063U 20055AN  26197.00002315  .00048919  00000+0  15785-2 0  9995,2 46063  53.1572 236.8671 0001022  78.3843  54.1055 15.31686147  5888
STARLINK-1583,46064,53.1601,0.0001406,15.31702126,469.77070652312705,471.6966089520829,1 46064U 20055AP  26196.40281729  .00002604  00000+0  95660-4 0  9990,2 46064  53.1601 240.1510 0001406  89.3187 270.7975 15.31702126328624
STARLINK-1536,46070,53.1587,0.0001062,15.31693228,470.0328293988805,471.48753516039596,1 46070U 20055AV  26196.46937081 -.00000542  00000+0 -57057-5 0  9992,2 46070  53.1587 227.2226 0001062  93.3116 266.8007 15.31693228328814
STARLINK-1542,46073,53.1586,0.0001106,15.31696659,469.99246769372076,471.50744148807644,1 46073U 20055AY  26196.55898858  .00000066  00000+0  13879-4 0  9995,2 46073  53.1586 229.7758 0001106  83.7726 276.3402 15.31696659328773
STARLINK-1549,46074,53.0472,0.0002234,15.34507528,460.85549067725333,463.9118353094791,1 46074U 20055AZ  26196.43434578  .00024281  00000+0  72491-3 0  9997,2 46074  53.0472 226.8707 0002234  37.1303 322.9852 15.34507528328783
STARLINK-1551,46075,53.1591,0.0001303,15.31696366,469.8584179279769,471.6432380959568,1 46075U 20055BA  26196.46037877  .00000292  00000+0  21185-4 0  9993,2 46075  53.1591 227.2051 0001303  77.5130 282.6017 15.31696366328800
STARLINK-1552,46076,53.1564,0.0001119,15.31703385,469.9635165287318,471.4962929420117,1 46076U 20055BB  26196.38108475 -.00000234  00000+0  42078-5 0  9990,2 46076  53.1564 227.1578 0001119  86.2866 273.8263 15.31703385328784
STARLINK-1559,46077,53.0194,0.0004548,15.41815769,437.6491734777137,443.85163345990804,1 46077U 20055BC  26196.69079445  .00036231  00000+0  84745-3 0  9999,2 46077  53.0194 192.3617 0004548  34.9116 325.2186 15.41815769329257
STARLINK-1566,46079,53.1591,0.0001171,15.3170265,469.9300931538219,471.5340982960406,1 46079U 20055BE  26196.58148007  .00001124  00000+0  47967-4 0  9999,2 46079  53.1591 226.0767 0001171  88.9682 271.1454 15.31702650328831
STARLINK-1568,46080,53.0562,0.0003129,15.57398248,393.0707919823835,397.3095401228984,1 46080U 20055BF  26196.26340749  .00033735  00000+0  45689-3 0  9994,2 46080  53.0562 139.1782 0003129 111.5572 248.5773 15.57398248330003
STARLINK-1578,46082,53.1596,0.000115,15.31701844,469.946878140805,471.52211858542887,1 46082U 20055BH  26196.52062455  .00001267  00000+0  52570-4 0  9993,2 46082  53.1596 226.8785 0001150  84.0996 276.0137 15.31701844328814
STARLINK-1579,46083,53.1594,0.0001281,15.31703862,469.8511431604493,471.60582249714935,1 46083U 20055BJ  26196.37641085  .00000122  00000+0  15712-4 0  9995,2 46083  53.1594 227.0854 0001281  81.7489 278.3657 15.31703862328790
STARLINK-1622,46128,53.005,0.0013448,16.12838028,230.17043372918852,247.9680716664443,1 46128U 20057M   26196.55480049  .00873223  46486-3  73953-3 0  9990,2 46128  53.0050 302.2871 0013448 325.3470  34.6687 16.12838028327570
STARLINK-1623,46129,53.0359,0.0004016,15.87074972,307.8023347644412,313.1746387554067,1 46129U 20057N   26197.00002315  .00109380  00000+0  41004-3 0  9994,2 46129  53.0359 342.6010 0004016 296.0446  34.5580 15.87074972  5850
STARLINK-1596,46141,53.0342,0.0001884,15.66367217,368.0383047704654,370.5807426205947,1 46141U 20057AA  26196.87217918  .00024631  00000+0  23766-3 0  9999,2 46141  53.0342 330.5009 0001884 235.9917 124.0919 15.66367217327228
STARLINK-1597,46142,53.0362,0.0004612,15.85534767,311.7325946295614,317.90617760011355,1 46142U 20057AB  26197.00002315  .00090102  00000+0  36532-3 0  9990,2 46142  53.0362  22.5595 0004612 252.5994 107.8174 15.85534767  5807
STARLINK-1608,46146,53.1564,0.000482,15.39608637,443.97589084991796,450.5555790864273,1 46146U 20057AF  26196.93560022  .00029452  00000+0  74351-3 0  9990,2 46146  53.1564  70.2093 0004820 110.1404 250.0120 15.39608637325865
STARLINK-1595,46159,53.0378,0.000347,15.82204648,321.88164067544585,326.53306765723755,1 46159U 20057AU  26196.90454497  .00157802  00000+0  74109-3 0  9991,2 46159  53.0378  26.5214 0003470 224.7860 135.2882 15.82204648327692
STARLINK-1598,46160,53.0429,0.0004119,15.80408809,326.52091363166073,332.0464868045001,1 46160U 20057AV  26196.90067544  .00102619  00000+0  52815-3 0  9992,2 46160  53.0429  12.9716 0004119 302.7679  57.2945 15.80408809327879
STARLINK-1626,46167,53.0362,0.0006052,15.86136659,309.0765404496333,317.1756452972477,1 46167U 20057BC  26196.91388560  .00142818  00000+0  55707-3 0  9992,2 46167  53.0362  21.1444 0006052 274.0080  86.0251 15.86136659326514
STARLINK-1633,46171,53.0266,0.0013028,16.04686121,252.8108036944932,270.1109399092602,1 46171U 20057BG  26196.95974639  .00443893  10197-3  63805-3 0  9996,2 46171  53.0266 338.6575 0013028 319.8669  40.1399 16.04686121328369
STARLINK-1640,46173,53.0361,0.0003314,15.82469498,321.23859900142816,325.68041716698735,1 46173U 20057BJ  26197.00002315  .00119156  00000+0  55602-3 0  9994,2 46173  53.0361  27.0374 0003314 235.6172 121.7225 15.82469498  6003
STARLINK-1641,46174,53.0451,0.0003223,15.68781553,360.2124503761388,364.5573908061533,1 46174U 20057BK  26196.76697210  .00048102  00000+0  41503-3 0  9998,2 46174  53.0451  23.0706 0003223 278.4157  81.6493 15.68781553326476
STARLINK-1695,46329,53.0373,0.000496,15.86461,308.89565929718174,315.5324875620254,1 46329U 20062E   26197.00002315  .00154515  00000+0  59248-3 0  9991,2 46329  53.0373  63.5958 0004960 251.9102 105.4033 15.86461000  5947
STARLINK-1719,46331,53.0267,0.0007795,16.00893163,266.76035731747925,277.1278337454132,1 46331U 20062G   26196.94746130  .00379279  73032-4  68895-3 0  9990,2 46331  53.0267  60.7918 0007795 249.3551 110.6643 16.00893163325042
STARLINK-1759,46340,53.0007,0.0009765,16.17240027,220.60615419479655,233.50609636847093,1 46340U 20062R   26197.06691345  .01285168  12735-2  81211-3 0  9993,2 46340  53.0007  47.8701 0009765 266.0398  93.9522 16.17240027325215
STARLINK-1762,46342,53.1535,0.0004287,15.41640899,438.34256483457193,444.1895210035709,1 46342U 20062T   26196.24175816  .00043015  00000+0  10095-2 0  9996,2 46342  53.1535 133.6164 0004287  34.6819 325.4466 15.41640899323992
